SAR-LUPE 2              
1 31797U 07030A   26196.97060902  .00015784  00000+0  24872-3 0  9994
2 31797  98.1062 305.0693 0004882 199.2835 160.8232 15.53659119 61408
SAPPHIRE                
1 39088U 13009C   26196.95406867  .00000034  00000+0  26833-4 0  9992
2 39088  98.4274  15.7287 0011633 157.7352 202.4341 14.35247708700709
PRAETORIAN SDA_602      
1 65565U 25203A   26196.94135148  .00000026  00000+0  12844-4 0  9998
2 65565  81.3045 344.1453 0007083 115.9015 244.2873 13.83887917 42678
PRAETORIAN SDA_603      
1 65566U 25203B   26196.89730086  .00000146  00000+0  12058-3 0  9994
2 65566  81.3048 344.1076 0010728 113.1404 247.0884 13.83962264 42677
PRAETORIAN SDA_604      
1 65567U 25203C   26196.93532926  .00000022  00000+0  92801-5 0  9992
2 65567  81.3067 344.5295 0006593 119.6204 240.5610 13.83050057 42651
PRAETORIAN SDA_605      
1 65568U 25203D   26196.89493790  .00000031  00000+0  17322-4 0  9997
2 65568  81.3031 344.2072 0009329 111.5452 248.6699 13.83200068 42665
PRAETORIAN SDA_606      
1 65569U 25203E   26196.88011158  .00000026  00000+0  12643-4 0  9996
2 65569  81.3068 344.4591 0007185 114.4820 245.7086 13.83200114 42652
PRAETORIAN SDA_607      
1 65570U 25203F   26196.94250023  .00000067  00000+0  49706-4 0  9996
2 65570  81.3051 344.0210 0009991 112.9072 247.3140 13.83758870 42688
PRAETORIAN SDA_608      
1 65571U 25203G   26196.92499158  .00000032  00000+0  18530-4 0  9992
2 65571  81.3020 344.2004 0007076 118.4881 241.6989 13.83819485 42665
PRAETORIAN SDA_609      
1 65572U 25203H   26196.92176374  .00000135  00000+0  11008-3 0  9991
2 65572  81.3062 344.1813 0008018 113.0690 247.1313 13.84210834 42672
PRAETORIAN SDA_610      
1 65573U 25203J   26196.90704257  .00000048  00000+0  32472-4 0  9999
2 65573  81.3022 344.1803 0007804 118.0745 242.1202 13.83528236 42664
PRAETORIAN SDA_611      
1 65574U 25203K   26196.91606490 -.00000195  00000+0 -18872-3 0  9993
2 65574  81.3028 344.3545 0006674 122.2671 237.9133 13.83311651 42650
PRAETORIAN SDA_612      
1 65575U 25203L   26196.94207080  .00000103  00000+0  80480-4 0  9991
2 65575  81.3043 343.8467 0010393 113.2451 246.9801 13.85040798 42693
PRAETORIAN SDA_613      
1 65576U 25203M   26196.93409870  .00000035  00000+0  21370-4 0  9999
2 65576  81.3013 344.3576 0006788 113.1880 246.9991 13.82767737 42658
PRAETORIAN SDA_614      
1 65577U 25203N   26196.93667953  .00000023  00000+0  94970-5 0  9992
2 65577  81.3028 343.9365 0008234 111.3970 248.8067 13.84778586 42699
PRAETORIAN SDA_615      
1 65578U 25203P   26196.92064009  .00000087  00000+0  66843-4 0  9992
2 65578  81.3037 343.9335 0010135 111.8942 248.3293 13.84438328 42686
PRAETORIAN SDA_616      
1 65579U 25203Q   26196.91613452  .00000150  00000+0  12586-3 0  9999
2 65579  81.3076 344.5194 0006548 120.3872 239.7932 13.83270520 42658
PRAETORIAN SDA_617      
1 65580U 25203R   26196.94019071  .00000034  00000+0  20067-4 0  9996
2 65580  81.3051 344.3256 0008494 111.8612 248.3448 13.83152174 42662
PRAETORIAN SDA_618      
1 65581U 25203S   26196.88809716  .00000124  00000+0  10001-3 0  9999
2 65581  81.3034 343.8957 0010874 115.1561 245.0724 13.84225742 42687
PRAETORIAN SDA_619      
1 65582U 25203T   26196.93571679  .00000115  00000+0  92991-4 0  9999
2 65582  81.3058 344.1809 0009319 112.5062 247.7082 13.83805816 43304
PRAETORIAN SDA_620      
1 65583U 25203U   26196.89880129  .00000116  00000+0  95215-4 0  9991
2 65583  81.3053 344.2477 0008831 109.3041 250.9071 13.83204612 42660
PRAETORIAN SDA_621      
1 65584U 25203V   26196.86525128  .00000021  00000+0  82299-5 0  9998
2 65584  81.3034 344.1778 0008501 107.2893 252.9194 13.83803762 42668
PRAETORIAN SDA_601      
1 65585U 25203W   26196.92134745  .00000041  00000+0  26575-4 0  9993
2 65585  81.3059 344.4550 0006548 121.9532 238.2262 13.83169937 42650
VICTUS HAZE PUMA        
1 69646U 26142A   26196.90320380  .00001846  00000+0  86177-4 0  9996
2 69646  97.4464  94.1980 0025063 263.2799  96.5584 15.20849861  4030
